EUTELSAT 7A             
1 28187U 04008A   25267.69199861  .00000106  00000+0  00000+0 0  9994
2 28187   5.1514  75.1650 0000948  73.0257 325.5142  1.00269840 78695
EUTELSAT 174A           
1 28924U 05052A   25267.82546586  .00000012  00000+0  00000+0 0  9994
2 28924   3.5420  79.8105 0006063 102.6228 292.6939  1.00269744 49676
EUTELSAT HOTBIRD 13B    
1 29270U 06032A   25267.94022329  .00000158  00000+0  00000+0 0  9996
2 29270   0.9709  85.1430 0004044  91.1099 199.3304  1.00273098 44646
EUTELSAT HOTBIRD 13C    
1 33459U 08065A   25267.93120992 -.00000098  00000+0  00000+0 0  9996
2 33459   2.2631  82.3292 0004825 124.0154 120.4105  1.00272240 44685
EUTELSAT 36B            
1 36101U 09065A   25267.99404837  .00000000  00000+0  00000+0 0  9995
2 36101   0.0258 337.0252 0005872 212.7895 222.6150  1.00273848 58044
EUTELSAT KA-SAT 9A      
1 37258U 10069A   25267.92683745  .00000063  00000+0  00000+0 0  9994
2 37258   0.0568 325.4556 0002861 187.4430 193.7853  1.00270019 41348
EUTELSAT 7 WEST A       
1 37816U 11051A   25267.78949903 -.00000059  00000+0  00000+0 0  9997
2 37816   0.0789  30.0925 0005968 157.5735  93.1093  1.00272851 51222
EUTELSAT 16A            
1 37836U 11057A   25267.86546471  .00000105  00000+0  00000+0 0  9998
2 37836   0.0645 350.7581 0005352 193.7365 147.0233  1.00271766  4668
